SPACEMOBILE-006         
1 67232U 25309A   26061.46824784  .00002687  00000+0  14597-3 0  9998
2 67232  52.9962 100.2307 0011303 158.5957 201.5511 15.17971991 10383
